<?xml version="1.0" encoding="UTF-8"?>
<kml xmlns="http://www.opengis.net/kml/2.2" xmlns:gx="http://www.google.com/kml/ext/2.2" xmlns:kml="http://www.opengis.net/kml/2.2" xmlns:atom="http://www.w3.org/2005/Atom">
<Document id="1-J0RyAmwsja_lxvl3fPfq8Th8pKHyO21">
	<name>rantsija</name>
	<gx:CascadingStyle kml:id="__managed_style_60E7E78C3D3AF40194E1">
		<Style>
			<IconStyle>
				<scale>1.2</scale>
				<Icon>
					<href>https://earth.google.com/earth/document/icon?color=388e3c&amp;id=2000&amp;scale=4</href>
				</Icon>
				<hotSpot x="64" y="128" xunits="pixels" yunits="insetPixels"/>
			</IconStyle>
			<LabelStyle>
			</LabelStyle>
			<LineStyle>
				<color>ff2dc0fb</color>
				<width>6</width>
			</LineStyle>
			<PolyStyle>
				<color>40ffffff</color>
			</PolyStyle>
			<BalloonStyle>
			</BalloonStyle>
		</Style>
	</gx:CascadingStyle>
	<StyleMap id="__managed_style_41D38EBBA03AF40194E1">
		<Pair>
			<key>normal</key>
			<styleUrl>#__managed_style_5D84FE60483AF40194E1</styleUrl>
		</Pair>
		<Pair>
			<key>highlight</key>
			<styleUrl>#__managed_style_60E7E78C3D3AF40194E1</styleUrl>
		</Pair>
	</StyleMap>
	<gx:CascadingStyle kml:id="__managed_style_3EB6EF70503AF40194E1">
		<Style>
			<IconStyle>
				<scale>1.2</scale>
				<Icon>
					<href>https://earth.google.com/earth/document/icon?color=1976d2&amp;id=2000&amp;scale=4</href>
				</Icon>
				<hotSpot x="64" y="128" xunits="pixels" yunits="insetPixels"/>
			</IconStyle>
			<LabelStyle>
			</LabelStyle>
			<LineStyle>
				<color>ff2dc0fb</color>
				<width>6</width>
			</LineStyle>
			<PolyStyle>
				<color>40ffffff</color>
			</PolyStyle>
			<BalloonStyle>
			</BalloonStyle>
		</Style>
	</gx:CascadingStyle>
	<gx:CascadingStyle kml:id="__managed_style_7F8FB327E53AF40194E4">
		<Style>
			<IconStyle>
				<scale>1.5</scale>
				<Icon>
					<href>https://earth.google.com/earth/document/icon?color=42a5f5&amp;id=2000&amp;scale=4</href>
				</Icon>
				<hotSpot x="64" y="128" xunits="pixels" yunits="insetPixels"/>
			</IconStyle>
			<LabelStyle>
			</LabelStyle>
			<LineStyle>
				<color>ff2dc0fb</color>
				<width>4</width>
			</LineStyle>
			<PolyStyle>
				<color>40ffffff</color>
			</PolyStyle>
			<BalloonStyle>
			</BalloonStyle>
		</Style>
	</gx:CascadingStyle>
	<gx:CascadingStyle kml:id="__managed_style_28A22C8F743AF40194E1">
		<Style>
			<IconStyle>
				<Icon>
					<href>https://earth.google.com/earth/document/icon?color=1976d2&amp;id=2000&amp;scale=4</href>
				</Icon>
				<hotSpot x="64" y="128" xunits="pixels" yunits="insetPixels"/>
			</IconStyle>
			<LabelStyle>
			</LabelStyle>
			<LineStyle>
				<color>ff2dc0fb</color>
				<width>4</width>
			</LineStyle>
			<PolyStyle>
				<color>40ffffff</color>
			</PolyStyle>
			<BalloonStyle>
			</BalloonStyle>
		</Style>
	</gx:CascadingStyle>
	<StyleMap id="__managed_style_19CC9D8AB13AF40194E1">
		<Pair>
			<key>normal</key>
			<styleUrl>#__managed_style_28A22C8F743AF40194E1</styleUrl>
		</Pair>
		<Pair>
			<key>highlight</key>
			<styleUrl>#__managed_style_3EB6EF70503AF40194E1</styleUrl>
		</Pair>
	</StyleMap>
	<gx:CascadingStyle kml:id="__managed_style_4BC1F4BC0F3AF40194E4">
		<Style>
			<IconStyle>
				<Icon>
					<href>https://earth.google.com/earth/document/icon?color=1976d2&amp;id=2000&amp;scale=4</href>
				</Icon>
				<hotSpot x="64" y="128" xunits="pixels" yunits="insetPixels"/>
			</IconStyle>
			<LabelStyle>
			</LabelStyle>
			<LineStyle>
				<color>ff58eeff</color>
				<width>4</width>
			</LineStyle>
			<PolyStyle>
				<color>40ffffff</color>
			</PolyStyle>
			<BalloonStyle>
			</BalloonStyle>
		</Style>
	</gx:CascadingStyle>
	<StyleMap id="__managed_style_3513C5F5E43AF40194E4">
		<Pair>
			<key>normal</key>
			<styleUrl>#__managed_style_4BC1F4BC0F3AF40194E4</styleUrl>
		</Pair>
		<Pair>
			<key>highlight</key>
			<styleUrl>#__managed_style_56F248B33D3AF40194E4</styleUrl>
		</Pair>
	</StyleMap>
	<gx:CascadingStyle kml:id="__managed_style_56F248B33D3AF40194E4">
		<Style>
			<IconStyle>
				<scale>1.2</scale>
				<Icon>
					<href>https://earth.google.com/earth/document/icon?color=1976d2&amp;id=2000&amp;scale=4</href>
				</Icon>
				<hotSpot x="64" y="128" xunits="pixels" yunits="insetPixels"/>
			</IconStyle>
			<LabelStyle>
			</LabelStyle>
			<LineStyle>
				<color>ff58eeff</color>
				<width>6</width>
			</LineStyle>
			<PolyStyle>
				<color>40ffffff</color>
			</PolyStyle>
			<BalloonStyle>
			</BalloonStyle>
		</Style>
	</gx:CascadingStyle>
	<gx:CascadingStyle kml:id="__managed_style_0AA20C07C83AF40194E6">
		<Style>
			<IconStyle>
				<scale>1.8</scale>
				<Icon>
					<href>https://earth.google.com/earth/document/icon?color=42a5f5&amp;id=2000&amp;scale=4</href>
				</Icon>
				<hotSpot x="64" y="128" xunits="pixels" yunits="insetPixels"/>
			</IconStyle>
			<LabelStyle>
			</LabelStyle>
			<LineStyle>
				<color>ff2dc0fb</color>
				<width>6</width>
			</LineStyle>
			<PolyStyle>
				<color>40ffffff</color>
			</PolyStyle>
			<BalloonStyle>
			</BalloonStyle>
		</Style>
	</gx:CascadingStyle>
	<gx:CascadingStyle kml:id="__managed_style_5D84FE60483AF40194E1">
		<Style>
			<IconStyle>
				<Icon>
					<href>https://earth.google.com/earth/document/icon?color=388e3c&amp;id=2000&amp;scale=4</href>
				</Icon>
				<hotSpot x="64" y="128" xunits="pixels" yunits="insetPixels"/>
			</IconStyle>
			<LabelStyle>
			</LabelStyle>
			<LineStyle>
				<color>ff2dc0fb</color>
				<width>4</width>
			</LineStyle>
			<PolyStyle>
				<color>40ffffff</color>
			</PolyStyle>
			<BalloonStyle>
			</BalloonStyle>
		</Style>
	</gx:CascadingStyle>
	<StyleMap id="__managed_style_67F36CB4CD3AF40194E4">
		<Pair>
			<key>normal</key>
			<styleUrl>#__managed_style_7F8FB327E53AF40194E4</styleUrl>
		</Pair>
		<Pair>
			<key>highlight</key>
			<styleUrl>#__managed_style_0AA20C07C83AF40194E6</styleUrl>
		</Pair>
	</StyleMap>
	<Placemark id="08BA8F90653922FAE94C">
		<name>Bussijaam</name>
		<LookAt>
			<longitude>22.49342421394417</longitude>
			<latitude>58.25472743550607</latitude>
			<altitude>9.523804018515921</altitude>
			<heading>0</heading>
			<tilt>0</tilt>
			<gx:fovy>35</gx:fovy>
			<range>119.7677067444783</range>
			<altitudeMode>absolute</altitudeMode>
		</LookAt>
		<styleUrl>#__managed_style_67F36CB4CD3AF40194E4</styleUrl>
		<Point>
			<coordinates>22.49383562100051,58.25479092682001,9.411034113325867</coordinates>
		</Point>
	</Placemark>
	<Placemark id="08F2015AAB3922FC50CB">
		<name>bussijaam-linnateater</name>
		<visibility>0</visibility>
		<LookAt>
			<longitude>22.49129936258654</longitude>
			<latitude>58.25491069696163</latitude>
			<altitude>10.85701128547316</altitude>
			<heading>1.920001128591758e-13</heading>
			<tilt>0</tilt>
			<gx:fovy>35</gx:fovy>
			<range>416.7555796944363</range>
			<altitudeMode>absolute</altitudeMode>
		</LookAt>
		<styleUrl>#__managed_style_3513C5F5E43AF40194E4</styleUrl>
		<LineString>
			<coordinates>
				22.49375093047723,58.25477451212102,0 22.49351036120773,58.25473857159147,0 22.49298835739953,58.25479627058652,0 22.4925771871332,58.25485440384752,0 22.49234363704289,58.25491430155643,0 22.49217453065999,58.25483345903142,0 22.49210924484786,58.2548187087562,0 22.49197500927584,58.25481715876661,0 22.49186608094492,58.25478457922505,0 22.49181923639862,58.2547388696003,0 22.49182673137466,58.25472029474445,0 22.49170031965617,58.25470096702885,0 22.49166198137782,58.2547458791543,0 22.49161664214453,58.25475984180067,0 22.49144317832504,58.25472524521388,0 22.49097677065563,58.25463027619429,0 22.49067948782226,58.25456969538276,0 22.49039248792705,58.25450913682859,0 22.48997088836697,58.25440783653021,0 22.48974179688818,58.25435028290384,0
			</coordinates>
		</LineString>
	</Placemark>
	<Placemark id="0CD31980B83922FD5718">
		<name>Kuressaare Linnateater</name>
		<LookAt>
			<longitude>22.49129936901074</longitude>
			<latitude>58.25491067248902</latitude>
			<altitude>10.85701127415597</altitude>
			<heading>0</heading>
			<tilt>0</tilt>
			<gx:fovy>35</gx:fovy>
			<range>416.7555796944363</range>
			<altitudeMode>absolute</altitudeMode>
		</LookAt>
		<styleUrl>#__managed_style_19CC9D8AB13AF40194E1</styleUrl>
		<Point>
			<coordinates>22.48986218542472,58.25420395092079,11.9966438345263</coordinates>
		</Point>
	</Placemark>
	<Placemark id="0694F9453B3923014ACC">
		<name>BUSSIJAAM linnaliini bussipeatus</name>
		<visibility>0</visibility>
		<LookAt>
			<longitude>22.49319457772796</longitude>
			<latitude>58.25480579260015</latitude>
			<altitude>9.319875491813065</altitude>
			<heading>0</heading>
			<tilt>0</tilt>
			<gx:fovy>35</gx:fovy>
			<range>117.1125273170219</range>
			<altitudeMode>absolute</altitudeMode>
		</LookAt>
		<styleUrl>#__managed_style_41D38EBBA03AF40194E1</styleUrl>
		<Point>
			<coordinates>22.49341634459477,58.25477166505947,9.438744495132303</coordinates>
		</Point>
	</Placemark>
	<Placemark id="0AE36B375839230311EF">
		<name>RUUBI Linnaliini bussipeatus</name>
		<LookAt>
			<longitude>22.49233362790951</longitude>
			<latitude>58.25519101929849</latitude>
			<altitude>9.955733433564111</altitude>
			<heading>0</heading>
			<tilt>0</tilt>
			<gx:fovy>35</gx:fovy>
			<range>237.3723176735075</range>
			<altitudeMode>absolute</altitudeMode>
		</LookAt>
		<styleUrl>#__managed_style_41D38EBBA03AF40194E1</styleUrl>
		<Point>
			<coordinates>22.49299271311322,58.25527481474669,9.834829087885861</coordinates>
		</Point>
	</Placemark>
	<Placemark id="0C4171BAD7392303DF76">
		<name>Swedbank kontor</name>
		<LookAt>
			<longitude>22.48936461055356</longitude>
			<latitude>58.25424192397005</latitude>
			<altitude>11.52389341158676</altitude>
			<heading>0</heading>
			<tilt>0</tilt>
			<gx:fovy>35</gx:fovy>
			<range>205.6090865380975</range>
			<altitudeMode>absolute</altitudeMode>
		</LookAt>
		<styleUrl>#__managed_style_19CC9D8AB13AF40194E1</styleUrl>
		<Point>
			<coordinates>22.48910477358789,58.25409884310449,11.51257627815601</coordinates>
		</Point>
	</Placemark>
	<Placemark id="0830D1669E392304CC90">
		<name>Bussijaam-RUUBI peatus</name>
		<visibility>0</visibility>
		<LookAt>
			<longitude>22.49278628837206</longitude>
			<latitude>58.25509049322713</latitude>
			<altitude>9.689438165855485</altitude>
			<heading>0</heading>
			<tilt>0</tilt>
			<gx:fovy>35</gx:fovy>
			<range>121.8294005627286</range>
			<altitudeMode>absolute</altitudeMode>
		</LookAt>
		<styleUrl>#__managed_style_19CC9D8AB13AF40194E1</styleUrl>
		<LineString>
			<coordinates>
				22.4937460948947,58.25477510639848,0 22.49360392316249,58.25474963869354,0 22.49352985911997,58.25474327175877,0 22.49321973923504,58.25477033956209,0 22.49295185844411,58.25480601201172,0 22.49265645820332,58.25483761610801,0 22.4924497053803,58.2548856146982,0 22.49232134496019,58.25492850464808,0 22.49227761522576,58.25495149270555,0 22.4922638454662,58.25497304097213,0 22.49234480034594,58.2550095510156,0 22.49251054608354,58.25508645099567,0 22.49271848278062,58.255169969291,0 22.49278478157793,58.25518741044176,0 22.49292049762018,58.25523826336811,0 22.49298528721312,58.25527391705053,0
			</coordinates>
		</LineString>
	</Placemark>
	<Placemark id="010AAD2F9E392306B4B4">
		<name>bussijaam-Swedbank</name>
		<visibility>0</visibility>
		<LookAt>
			<longitude>22.48948216496324</longitude>
			<latitude>58.25424328096977</latitude>
			<altitude>11.74220764780592</altitude>
			<heading>0</heading>
			<tilt>0</tilt>
			<gx:fovy>35</gx:fovy>
			<range>181.9115093254914</range>
			<altitudeMode>absolute</altitudeMode>
		</LookAt>
		<styleUrl>#__managed_style_19CC9D8AB13AF40194E1</styleUrl>
		<LineString>
			<coordinates>
				22.49375446988848,58.25477419259485,0 22.49357189447499,58.25474056740798,0 22.49330932275375,58.254757389749,0 22.49315218548421,58.25478378492621,0 22.49297320501033,58.25479945893255,0 22.49281321681518,58.25481626957153,0 22.49262192687537,58.25484382324984,0 22.49247616769854,58.25488208043129,0 22.49234199523008,58.25492159350193,0 22.49227614004272,58.25488087862232,0 22.49215123637873,58.25481750042658,0 22.49203078383415,58.25482108563732,0 22.4918923161339,58.25479598800085,0 22.49181757272232,58.25476135098703,0 22.49183377635424,58.25471242369613,0 22.49168648041426,58.25469574684676,0 22.49163203442028,58.2547518585657,0 22.49156004071141,58.2547471422939,0 22.49133578623528,58.25470209968451,0 22.49090110740227,58.25460752823741,0 22.49015339540066,58.25444633570841,0 22.4894393203791,58.25426849318364,0 22.48932195015736,58.25422695563255,0 22.48907571724596,58.25415209551998,0
			</coordinates>
		</LineString>
	</Placemark>
	<Placemark id="0A29457F1E3989DF1AD3">
		<name>Saaremaa Vallavalitsus</name>
		<LookAt>
			<longitude>22.48729447035434</longitude>
			<latitude>58.25335135823445</latitude>
			<altitude>11.62305034904562</altitude>
			<heading>0</heading>
			<tilt>0</tilt>
			<gx:fovy>35</gx:fovy>
			<range>472.0321145387425</range>
			<altitudeMode>absolute</altitudeMode>
		</LookAt>
		<styleUrl>#__managed_style_19CC9D8AB13AF40194E1</styleUrl>
		<Point>
			<coordinates>22.48729447035434,58.25335135823445,11.62305034904562</coordinates>
		</Point>
	</Placemark>
	<Placemark id="0B937F39233989E01505">
		<name>Saaremaa Apteek</name>
		<LookAt>
			<longitude>22.48535878171486</longitude>
			<latitude>58.25256545418814</latitude>
			<altitude>10.34569626552114</altitude>
			<heading>359.9999999999998</heading>
			<tilt>0</tilt>
			<gx:fovy>35</gx:fovy>
			<range>380.1996613858137</range>
			<altitudeMode>absolute</altitudeMode>
		</LookAt>
		<styleUrl>#__managed_style_19CC9D8AB13AF40194E1</styleUrl>
		<Point>
			<coordinates>22.48535878171486,58.25256545418814,10.34569626552114</coordinates>
		</Point>
	</Placemark>
	<Placemark id="090ED1E1473989E16679">
		<name>Coop Toidumaailm</name>
		<LookAt>
			<longitude>22.48609324278442</longitude>
			<latitude>58.25218473658152</latitude>
			<altitude>9.247752227782071</altitude>
			<heading>0</heading>
			<tilt>0</tilt>
			<gx:fovy>35</gx:fovy>
			<range>394.0324930581119</range>
			<altitudeMode>absolute</altitudeMode>
		</LookAt>
		<styleUrl>#__managed_style_19CC9D8AB13AF40194E1</styleUrl>
		<Point>
			<coordinates>22.48609324278442,58.25218473658152,9.247752227782071</coordinates>
		</Point>
	</Placemark>
	<Placemark id="0B452730413989E1F219">
		<name>Maxima xx kauplus</name>
		<LookAt>
			<longitude>22.48616910414709</longitude>
			<latitude>58.25262084950542</latitude>
			<altitude>10.24759302326326</altitude>
			<heading>0</heading>
			<tilt>0</tilt>
			<gx:fovy>35</gx:fovy>
			<range>393.0326577769301</range>
			<altitudeMode>absolute</altitudeMode>
		</LookAt>
		<styleUrl>#__managed_style_19CC9D8AB13AF40194E1</styleUrl>
		<Point>
			<coordinates>22.48616910414709,58.25262084950542,10.24759302326326</coordinates>
		</Point>
	</Placemark>
	<Placemark id="049D4410B93989E2AE8E">
		<name>Saaremaa Keskraamatukogu</name>
		<LookAt>
			<longitude>22.48687033680505</longitude>
			<latitude>58.25291314039693</latitude>
			<altitude>10.85702048776099</altitude>
			<heading>0</heading>
			<tilt>0</tilt>
			<gx:fovy>35</gx:fovy>
			<range>344.5557120792</range>
			<altitudeMode>absolute</altitudeMode>
		</LookAt>
		<styleUrl>#__managed_style_19CC9D8AB13AF40194E1</styleUrl>
		<Point>
			<coordinates>22.48687033680505,58.25291314039693,10.85702048776099</coordinates>
		</Point>
	</Placemark>
	<Placemark id="0728689A153989E6E2AC">
		<name>Kuressaare Haigla</name>
		<LookAt>
			<longitude>22.47230525031041</longitude>
			<latitude>58.25119750759828</latitude>
			<altitude>8.113369644059494</altitude>
			<heading>344.7566969963614</heading>
			<tilt>0</tilt>
			<gx:fovy>34.9999999999322</gx:fovy>
			<range>267.7670042771206</range>
			<altitudeMode>absolute</altitudeMode>
		</LookAt>
		<styleUrl>#__managed_style_19CC9D8AB13AF40194E1</styleUrl>
		<Point>
			<coordinates>22.47230525031041,58.25119750759828,8.113369644059494</coordinates>
		</Point>
	</Placemark>
	<Placemark id="02539407753989E76AB8">
		<name>Kuressaare Perearstikeskus</name>
		<LookAt>
			<longitude>22.47074517379291</longitude>
			<latitude>58.25043935842697</latitude>
			<altitude>6.005815819103024</altitude>
			<heading>344.7553770669317</heading>
			<tilt>0</tilt>
			<gx:fovy>34.9999999999322</gx:fovy>
			<range>324.6479389043088</range>
			<altitudeMode>absolute</altitudeMode>
		</LookAt>
		<styleUrl>#__managed_style_19CC9D8AB13AF40194E1</styleUrl>
		<Point>
			<coordinates>22.47074517379291,58.25043935842697,6.005815819103024</coordinates>
		</Point>
	</Placemark>
	<Placemark id="094E2FA87439A3F83B6C">
		<name>Sotsiaalkindlustusamet</name>
		<LookAt>
			<longitude>22.4822734254762</longitude>
			<latitude>58.25022088201428</latitude>
			<altitude>9.310471893855631</altitude>
			<heading>0</heading>
			<tilt>0</tilt>
			<gx:fovy>30.00028249292142</gx:fovy>
			<range>261.1105599841903</range>
			<altitudeMode>absolute</altitudeMode>
		</LookAt>
		<styleUrl>#__managed_style_19CC9D8AB13AF40194E1</styleUrl>
		<Point>
			<coordinates>22.48265194092015,58.25034681117544,9.876884189771252</coordinates>
		</Point>
	</Placemark>
	<Placemark id="039F4B9B9639A3F914F9">
		<name>Hambapolikliinik</name>
		<LookAt>
			<longitude>22.48175769933275</longitude>
			<latitude>58.25149705593843</latitude>
			<altitude>9.091795865552525</altitude>
			<heading>0</heading>
			<tilt>0</tilt>
			<gx:fovy>30.00028249292142</gx:fovy>
			<range>202.8663189626604</range>
			<altitudeMode>absolute</altitudeMode>
		</LookAt>
		<styleUrl>#__managed_style_19CC9D8AB13AF40194E1</styleUrl>
		<Point>
			<coordinates>22.48209274519532,58.25140188780832,9.251393940178351</coordinates>
		</Point>
	</Placemark>
	<Placemark id="05AAFD116039A3FD3000">
		<name>bussijaam- haigla</name>
		<visibility>0</visibility>
		<LookAt>
			<longitude>22.47337039918427</longitude>
			<latitude>58.2511390335435</latitude>
			<altitude>6.606175755175445</altitude>
			<heading>0</heading>
			<tilt>0</tilt>
			<gx:fovy>30.00028249292142</gx:fovy>
			<range>237.5380143313305</range>
			<altitudeMode>absolute</altitudeMode>
		</LookAt>
		<styleUrl>#__managed_style_19CC9D8AB13AF40194E1</styleUrl>
		<LineString>
			<coordinates>
				22.49368457359818,58.25473179643147,0 22.49332712002212,58.25475631107292,0 22.49274626851777,58.25482429220484,0 22.49234141226145,58.25491107529505,0 22.49217580086309,58.25482129180274,0 22.49200016283072,58.25482130441383,0 22.49191229989235,58.25479954983903,0 22.49183474397291,58.25475332149144,0 22.49186574309595,58.25468264097156,0 22.49171069557663,58.25467991729956,0 22.49160214079299,58.25473969628895,0 22.4898592678994,58.25438417396243,0 22.48954447350589,58.25430274146233,0 22.48864060714127,58.25403652295836,0 22.48744261393184,58.25368593760467,0 22.48648908045404,58.25332331264904,0 22.48581595703618,58.2530285263876,0 22.48553616338052,58.25296652588697,0 22.48521494761775,58.25274947855439,0 22.48515837686758,58.25255518389401,0 22.48505242056865,58.25246439277484,0 22.48485508734353,58.25248245608015,0 22.48413801442638,58.25233232120144,0 22.48357874650047,58.25226851674618,0 22.48335244747026,58.25221903714529,0 22.48300819165047,58.25210616063818,0 22.48282279762286,58.25203096150872,0 22.48237885155517,58.25185599708964,0 22.48211360327811,58.25180482631621,0 22.48137922899079,58.25184645480975,0 22.48121505303288,58.25188818970717,0 22.47964744209478,58.25211550741847,0 22.47966056317444,58.25218105778839,0 22.47951758518116,58.25219431902158,0 22.47945042089978,58.25212738216386,0 22.47926066854743,58.25212345749702,0 22.47902123758619,58.25216022277803,0 22.4782922242152,58.25242042065781,0 22.47818310173439,58.25239059063776,0 22.4776463028564,58.25252327667232,0 22.47747402644377,58.25260735462918,0 22.47736167047198,58.25271902099094,0 22.47665566985835,58.25299865146931,0 22.47649837200341,58.25301967026886,0 22.4764484365524,58.25301572869158,0 22.47628864011987,58.25308798284615,0 22.4758090786355,58.25272780424109,0 22.47487330517259,58.25209257700353,0 22.47357146980734,58.25121266425344,0 22.47308240227503,58.25089030314895,0 22.47236603463282,58.25116290331631,0
			</coordinates>
		</LineString>
	</Placemark>
	<Placemark id="0110BC582B3A0AB1CAF8">
		<name>Bussijaam Saaremaa Vallavalitsus</name>
		<visibility>0</visibility>
		<LookAt>
			<longitude>22.48750012239095</longitude>
			<latitude>58.25351090491782</latitude>
			<altitude>11.80322674240536</altitude>
			<heading>0</heading>
			<tilt>0</tilt>
			<gx:fovy>35</gx:fovy>
			<range>234.5517892522184</range>
			<altitudeMode>absolute</altitudeMode>
		</LookAt>
		<styleUrl>#__managed_style_19CC9D8AB13AF40194E1</styleUrl>
		<LineString>
			<coordinates>
				22.49376003365089,58.25475809400428,0 22.49353128652307,58.25474269923193,0 22.49268294105897,58.25483320837404,0 22.49233463580547,58.25491304539515,0 22.49215053028085,58.25483126147535,0 22.49193135820542,58.25479423841352,0 22.49181464885701,58.25475570109018,0 22.49181490104472,58.25472026840265,0 22.49169529009174,58.25470177610703,0 22.49160791981149,58.25475091714828,0 22.49125256828195,58.25468441049119,0 22.49040867118463,58.25451889761686,0 22.48942772526861,58.25429329131349,0 22.4889323819843,58.2541201461249,0 22.48780138480465,58.25377414263678,0 22.4870931839822,58.25357555134951,0 22.4868106358127,58.25346469827412,0 22.48699395141161,58.25331777332227,0 22.48722645309957,58.25315589362985,0 22.48732543980468,58.25314823435173,0
			</coordinates>
		</LineString>
	</Placemark>
	<Placemark id="0D997FCD913A0F9DEED6">
		<name>taksode peatus</name>
		<LookAt>
			<longitude>22.4935763871512</longitude>
			<latitude>58.25491416281292</latitude>
			<altitude>9.149579915316133</altitude>
			<heading>0</heading>
			<tilt>0</tilt>
			<gx:fovy>35</gx:fovy>
			<range>369.7457760361794</range>
			<altitudeMode>absolute</altitudeMode>
		</LookAt>
		<styleUrl>#__managed_style_41D38EBBA03AF40194E1</styleUrl>
		<Point>
			<coordinates>22.49431331921008,58.25528563126775,9.448393708588616</coordinates>
		</Point>
	</Placemark>
	<Placemark id="03F9047D303A0F9E9D4E">
		<name>Politsei- ja Piirivalveamet</name>
		<LookAt>
			<longitude>22.4935763871512</longitude>
			<latitude>58.25491416281292</latitude>
			<altitude>9.149579915316133</altitude>
			<heading>0</heading>
			<tilt>0</tilt>
			<gx:fovy>35</gx:fovy>
			<range>369.7457760361794</range>
			<altitudeMode>absolute</altitudeMode>
		</LookAt>
		<styleUrl>#__managed_style_19CC9D8AB13AF40194E1</styleUrl>
		<Point>
			<coordinates>22.49626940343863,58.25488100102064,9.224588213290872</coordinates>
		</Point>
	</Placemark>
	<Placemark id="0469F07FEC3A0F9F896E">
		<name>Bussijaam- Taksopeatus</name>
		<visibility>0</visibility>
		<LookAt>
			<longitude>22.4935763871512</longitude>
			<latitude>58.25491416281292</latitude>
			<altitude>9.149579915316133</altitude>
			<heading>0</heading>
			<tilt>0</tilt>
			<gx:fovy>35</gx:fovy>
			<range>369.7457760361794</range>
			<altitudeMode>absolute</altitudeMode>
		</LookAt>
		<styleUrl>#__managed_style_19CC9D8AB13AF40194E1</styleUrl>
		<LineString>
			<coordinates>
				22.49376410392791,58.25478709215951,0 22.49366792940302,58.25474137364316,0 22.49401569646605,58.25468121612604,0 22.4943450657151,58.25465236045564,0 22.4945283065048,58.25469804853808,0 22.49423575491018,58.25521108860814,0 22.49429504575593,58.25527601582085,0
			</coordinates>
		</LineString>
	</Placemark>
	<Placemark id="0DB7F8D3AD3A0FA1003B">
		<name>Bussijaam- Politsei- ja Piirivalveamet</name>
		<visibility>0</visibility>
		<LookAt>
			<longitude>22.49451110805981</longitude>
			<latitude>58.25491416324862</latitude>
			<altitude>9.091419479955697</altitude>
			<heading>0</heading>
			<tilt>0</tilt>
			<gx:fovy>35</gx:fovy>
			<range>369.8039286329731</range>
			<altitudeMode>absolute</altitudeMode>
		</LookAt>
		<styleUrl>#__managed_style_19CC9D8AB13AF40194E1</styleUrl>
		<LineString>
			<coordinates>
				22.49376410392791,58.25478709215951,0 22.49370455209746,58.25474618190565,0 22.49412549703946,58.25467159653072,0 22.49450057475239,58.25464033934001,0 22.49478860354852,58.25460668819543,0 22.49501704018919,58.2545682446865,0 22.49514996299609,58.25460428122879,0 22.49535584278956,58.25458742432323,0 22.49537546755687,58.25472929091132,0 22.49540781596017,58.25482561981342,0 22.49561865013171,58.2548400624367,0 22.49582119041344,58.25488823157114,0 22.49613300849735,58.2549822519201,0
			</coordinates>
		</LineString>
	</Placemark>
	<Placemark id="01F874ECA23A0FD12660">
		<name>Bussijaam Saaremaa Apteek</name>
		<visibility>0</visibility>
		<LookAt>
			<longitude>22.48518364804251</longitude>
			<latitude>58.25292878992422</latitude>
			<altitude>10.4557507729155</altitude>
			<heading>0</heading>
			<tilt>0</tilt>
			<gx:fovy>35</gx:fovy>
			<range>420.0646919102292</range>
			<altitudeMode>absolute</altitudeMode>
		</LookAt>
		<styleUrl>#__managed_style_19CC9D8AB13AF40194E1</styleUrl>
		<LineString>
			<coordinates>
				22.49376431709011,58.25475949353799,0 22.49363084798079,58.25472886942927,0 22.49265660892386,58.25481623097328,0 22.49222514030884,58.25494303219686,0 22.49205017055782,58.25482497072644,0 22.4918502364585,58.25478122584275,0 22.49179979243888,58.25469384107738,0 22.49169185399817,58.25469384120885,0 22.49155000145045,58.25478109477873,0 22.48921163238373,58.25421843117308,0 22.48800253852477,58.25384810318776,0 22.48726753754743,58.25366143991683,0 22.48650637410456,58.25337598086207,0 22.48599162451015,58.25310786514972,0 22.48541244209498,58.25292400177436,0 22.48520446194598,58.25277341446026,0 22.4853137906785,58.25259256271342,0
			</coordinates>
		</LineString>
	</Placemark>
	<Placemark id="0120366DE23A0FFF620C">
		<name>Bussijaam -Saaremaa kaubamaja</name>
		<visibility>0</visibility>
		<LookAt>
			<longitude>22.48642732842483</longitude>
			<latitude>58.25326709165478</latitude>
			<altitude>11.15869369569472</altitude>
			<heading>0</heading>
			<tilt>0</tilt>
			<gx:fovy>35</gx:fovy>
			<range>447.0377622307569</range>
			<altitudeMode>absolute</altitudeMode>
		</LookAt>
		<styleUrl>#__managed_style_19CC9D8AB13AF40194E1</styleUrl>
		<LineString>
			<coordinates>
				22.49377355901328,58.25479612540016,0 22.49358353230999,58.25473758323628,0 22.49261434880144,58.25485146849713,0 22.4923741637337,58.25491843424476,0 22.4921351938575,58.25481038283466,0 22.49186337962465,58.25475201782585,0 22.4917358118626,58.25468490265566,0 22.49160808983411,58.25477533833012,0 22.48955444911091,58.25432694051284,0 22.48794441018779,58.25384623987967,0 22.48690454715145,58.25352326543878,0 22.48599505986872,58.25308411347444,0 22.48617793861063,58.25292664454726,0 22.485728552617,58.25259374165305,0 22.48615522081289,58.25246427855991,0 22.4860440851424,58.25239106477465,0
			</coordinates>
		</LineString>
	</Placemark>
	<Placemark id="0C3FF405693A21F9680C">
		<name>Bussijaam - Sotsiaalkindlustusamet</name>
		<visibility>0</visibility>
		<LookAt>
			<longitude>22.48572587117427</longitude>
			<latitude>58.25120512715852</latitude>
			<altitude>8.725831530786492</altitude>
			<heading>0</heading>
			<tilt>0</tilt>
			<gx:fovy>35</gx:fovy>
			<range>634.2271933608572</range>
			<altitudeMode>absolute</altitudeMode>
		</LookAt>
		<styleUrl>#__managed_style_19CC9D8AB13AF40194E1</styleUrl>
		<LineString>
			<coordinates>
				22.49373364391685,58.25476164052964,0 22.49348971323797,58.25473271081999,0 22.49286885118371,58.25479043136588,0 22.49230361064028,58.25492241260987,0 22.49220097314847,58.25480681682885,0 22.49201287190655,58.25482744885099,0 22.4918789745796,58.25479025374916,0 22.49185454667131,58.25469121990824,0 22.49168191855377,58.25467883605019,0 22.49157934547647,58.25476528809991,0 22.49043524593355,58.2545428206793,0 22.489575172391,58.25433317572597,0 22.48920732021618,58.2542382270355,0 22.48887879445411,58.25412711192023,0 22.48814410437272,58.25389275826254,0 22.48740284409476,58.25371228189964,0 22.4866649027353,58.25341964462542,0 22.48618738735976,58.25325069416994,0 22.48581171163569,58.2530694937677,0 22.48549832985388,58.25293755107288,0 22.48515218425832,58.2526948169829,0 22.48503402390953,58.25250076292819,0 22.48490000893541,58.25230652984611,0 22.48473461971398,58.25233098552582,0 22.48359539354138,58.25115060263701,0 22.48295182851247,58.25045564959058,0 22.48274675885547,58.25035217519049,0
			</coordinates>
		</LineString>
	</Placemark>
	<Placemark id="0D502131823A21FCCAA3">
		<name>Bussijaam-Hambapolikliinik</name>
		<visibility>0</visibility>
		<LookAt>
			<longitude>22.48310097181741</longitude>
			<latitude>58.25213915338985</latitude>
			<altitude>9.119789133184547</altitude>
			<heading>0</heading>
			<tilt>0</tilt>
			<gx:fovy>35</gx:fovy>
			<range>529.45248461343</range>
			<altitudeMode>absolute</altitudeMode>
		</LookAt>
		<styleUrl>#__managed_style_19CC9D8AB13AF40194E1</styleUrl>
		<LineString>
			<coordinates>
				22.49376622592746,58.2547212325609,0 22.49278703586878,58.25480703312247,0 22.49227916768224,58.25495953182192,0 22.49206020416444,58.25483500252064,0 22.49167611528672,58.25476683537599,0 22.49116754120367,58.25468993533904,0 22.48993600783774,58.25444192439543,0 22.48890509137729,58.25420424150589,0 22.48787349745071,58.25387086302727,0 22.48691433843205,58.25357598178446,0 22.48631680159826,58.25328077842188,0 22.4855560665596,58.25282348124348,0 22.48518266814174,58.25261264832296,0 22.48504468720154,58.25248851261934,0 22.48462436978151,58.25243299029701,0 22.48412322936843,58.25233904149481,0 22.48357694338641,58.25225965054484,0 22.4832228627078,58.25219073637836,0 22.48280434734481,58.25203265381544,0 22.48254349887685,58.25191915159765,0 22.48260265104854,58.2518640048369,0 22.48215630555884,58.25156699620594,0 22.48202524163035,58.25148078130776,0
			</coordinates>
		</LineString>
	</Placemark>
	<Placemark id="02D88A57CD3A220284D1">
		<name>Bussijaam- Kuressaare haigla</name>
		<visibility>0</visibility>
		<LookAt>
			<longitude>22.47351533450987</longitude>
			<latitude>58.25135257890751</latitude>
			<altitude>7.124968159532632</altitude>
			<heading>0</heading>
			<tilt>0</tilt>
			<gx:fovy>35</gx:fovy>
			<range>530.9542539863469</range>
			<altitudeMode>absolute</altitudeMode>
		</LookAt>
		<styleUrl>#__managed_style_19CC9D8AB13AF40194E1</styleUrl>
		<LineString>
			<coordinates>
				22.49374887574125,58.25475901615129,0 22.49345913992645,58.25474632312949,0 22.49237282440148,58.25488567302007,0 22.49223944859198,58.25475254345622,0 22.49197356947652,58.25470814912136,0 22.49191231079389,58.25461943496437,0 22.49173238266659,58.25460679455945,0 22.491610930565,58.25471440241441,0 22.49021210225198,58.25448649771003,0 22.4896707545622,58.25432846724009,0 22.48865007155996,58.25407522560944,0 22.48771217623342,58.25377179342573,0 22.48689478528935,58.25356309222562,0 22.48644888637991,58.25341683774581,0 22.485726962552,58.2530116239876,0 22.48513502625404,58.25252250691659,0 22.48471891924919,58.25243141896968,0 22.48418835968744,58.25235495283201,0 22.48364593740583,58.252259809852,0 22.48338917044496,58.2522208733258,0 22.48270675045454,58.25198650933455,0 22.48224895958337,58.2518240622196,0 22.481691535825,58.2517929510954,0 22.48105528176158,58.25191372010707,0 22.48003735111423,58.2520585627824,0 22.47963434807523,58.2521171670037,0 22.47963402799914,58.25218633200573,0 22.4795155050636,58.2521897879026,0 22.47932443467205,58.25213096463067,0 22.47897593403025,58.25217593561536,0 22.47888880196442,58.25210937613916,0 22.47832262399659,58.25232059491786,0 22.4777831053743,58.2524763775147,0 22.47744754587199,58.25262177516438,0 22.47711855894535,58.25281910145153,0 22.47656095549977,58.25302712850677,0 22.47642278522919,58.2530236646198,0 22.47624513284532,58.25308943958384,0 22.47491002607932,58.25211249206466,0 22.47303449363017,58.25090632887093,0 22.47225520369603,58.25122910934966,0
			</coordinates>
		</LineString>
	</Placemark>
	<Placemark id="00065D75DC3A22075E56">
		<name>Bussijaam-Perearstikeskus</name>
		<visibility>0</visibility>
		<LookAt>
			<longitude>22.47261489163806</longitude>
			<latitude>58.25101920408726</latitude>
			<altitude>7.431792286189316</altitude>
			<heading>0</heading>
			<tilt>0</tilt>
			<gx:fovy>35</gx:fovy>
			<range>459.2710845936382</range>
			<altitudeMode>absolute</altitudeMode>
		</LookAt>
		<styleUrl>#__managed_style_19CC9D8AB13AF40194E1</styleUrl>
		<LineString>
			<coordinates>
				22.49375992918441,58.25475263347488,0 22.49363488436322,58.25472580750819,0 22.49268205124267,58.25481217257691,0 22.49236401978622,58.25490726184842,0 22.49215461048484,58.25480016221329,0 22.49204728470606,58.25481503749415,0 22.49182682124049,58.25476150805124,0 22.49183811809808,58.2546990636059,0 22.49169113253822,58.25469014823326,0 22.49161200064916,58.2547644734088,0 22.49002160998006,58.25442919587308,0 22.48953650590099,58.25431047812758,0 22.48923643101671,58.25422117758238,0 22.48767604996105,58.25376629702306,0 22.48682447926671,58.25350514269173,0 22.48589084345413,58.25312142345825,0 22.4853596522815,58.25290732705855,0 22.48517823888297,58.25270486185273,0 22.48514357216296,58.25254160016918,0 22.48503612585715,58.25246423242359,0 22.48481503972007,58.25247597934524,0 22.48410475801876,58.2523199669666,0 22.48367942144337,58.25227222198161,0 22.48331086419086,58.2522215504809,0 22.48277333357764,58.25201343298788,0 22.48216614970216,58.25179905097708,0 22.48136037183429,58.25183792717797,0 22.48003078882228,58.25205860408592,0 22.47967022163735,58.25210318530748,0 22.47965275969636,58.25216301632351,0 22.47952710457661,58.25216897325726,0 22.47939580367863,58.25212402914688,0 22.47910557788516,58.25213899805956,0 22.47895257394826,58.25211208579017,0 22.4782183787969,58.25236066081252,0 22.47775705979438,58.25247752472816,0 22.47748937406192,58.25261536755993,0 22.47727298585953,58.25276000011228,0 22.47650412038008,58.25305067341785,0 22.47641299732672,58.25301471240504,0 22.47628769875528,58.25308063833486,0 22.47486081588332,58.25208776110056,0 22.47441131874625,58.25177890646042,0 22.47313483828106,58.25093195239292,0 22.47164473875797,58.24991785178694,0 22.47070063784111,58.2502862668024,0 22.4707538644144,58.25041614796376,0
			</coordinates>
		</LineString>
	</Placemark>
	<Placemark id="00D38D66723A27AE7E36">
		<name>Bussijaam Ruubi peatus</name>
		<LookAt>
			<longitude>22.49064358399843</longitude>
			<latitude>58.2554842688794</latitude>
			<altitude>10.2117009715172</altitude>
			<heading>0</heading>
			<tilt>0</tilt>
			<gx:fovy>35</gx:fovy>
			<range>632.7413701762998</range>
			<altitudeMode>absolute</altitudeMode>
		</LookAt>
		<styleUrl>#__managed_style_19CC9D8AB13AF40194E1</styleUrl>
		<LineString>
			<coordinates>
				22.49379033854992,58.25476272468973,0 22.4936487456705,58.25474216792855,0 22.49320906249569,58.25475877198301,0 22.49247041092658,58.25486650794679,0 22.4922199504289,58.25498188029548,0 22.49270631990253,58.25519229889661,0 22.49299647240464,58.25528308234494,0
			</coordinates>
		</LineString>
	</Placemark>
</Document>
</kml>
